NORAD_CAT_ID,OBJECT_NAME,OBJECT_TYPE,EPOCH,MEAN_MOTION,ECCENTRICITY,INCLINATION,RA_OF_ASC_NODE,ARG_OF_PERICENTER,MEAN_ANOMALY,BSTAR,MEAN_MOTION_DOT,MEAN_MOTION_DDOT,TLE_LINE0,TLE_LINE1,TLE_LINE2,SEMIMAJOR_AXIS,PERIOD,APOGEE,PERIGEE,DECAYED
51961.0,STARLINK-3689,PAYLOAD,2023-09-09 01:17:46,15.08027855,0.000162,53.0555,164.8642,106.7379,253.3789,4.4069e-05,4e-06,0.0,0 STARLINK-3689,1 51961U 22025F   23252.05400551  .00000400  00000-0  44069-4 0  9998,2 51961  53.0555 164.8642 0001620 106.7379 253.3789 15.08027855 84516,6920.364,95.489,543.35,541.108,0.0
51961.0,STARLINK-3689,PAYLOAD,2023-09-09 10:50:22,15.08030565,0.0001347,53.0546,163.0705,95.8196,264.2947,8.937e-05,1.106e-05,0.0,0 STARLINK-3689,1 51961U 22025F   23252.45165281  .00001106  00000-0  89370-4 0  9998,2 51961  53.0546 163.0705 0001347  95.8196 264.2947 15.08030565 83460,6920.356,95.489,543.153,541.288,0.0
51961.0,STARLINK-3689,PAYLOAD,2023-09-10 01:09:17,15.08036513,0.0001284,53.0545,160.3888,100.2852,259.8282,0.00012392,1.644e-05,0.0,0 STARLINK-3689,1 51961U 22025F   23253.04812407  .00001644  00000-0  12392-3 0  9999,2 51961  53.0545 160.3888 0001284 100.2852 259.8282 15.08036513 84665,6920.337,95.488,543.091,541.314,0.0
51961.0,STARLINK-3689,PAYLOAD,2023-09-10 02:44:43,15.08038583,0.0001247,53.0544,160.0894,97.612,262.5012,0.00013665,1.843e-05,0.0,0 STARLINK-3689,1 51961U 22025F   23253.11439683  .00001843  00000-0  13665-3 0  9993,2 51961  53.0544 160.0894 0001247  97.6120 262.5012 15.08038583 83563,6920.331,95.488,543.059,541.333,0.0
51961.0,STARLINK-3689,PAYLOAD,2023-09-11 02:36:16,15.08033959,0.0001317,53.0552,155.6132,79.2335,280.8802,6.6467e-05,7.49e-06,0.0,0 STARLINK-3689,1 51961U 22025F   23254.10852960  .00000749  00000-0  66467-4 0  9993,2 51961  53.0552 155.6132 0001317  79.2335 280.8802 15.08033959 84821,6920.345,95.489,543.122,541.299,0.0
51961.0,STARLINK-3689,PAYLOAD,2023-09-11 10:33:28,15.08028711,0.0001323,53.0553,154.1212,83.2162,276.8978,8.1803e-06,-1.59e-06,0.0,0 STARLINK-3689,1 51961U 22025F   23254.43990942 -.00000159  00000-0  81803-5 0  9990,2 51961  53.0553 154.1212 0001323  83.2162 276.8978 15.08028711 83766,6920.361,95.489,543.142,541.311,0.0
51961.0,STARLINK-3689,PAYLOAD,2023-09-11 23:16:56,15.08036556,0.0001247,53.0549,151.7345,98.4004,261.7127,4.5785e-05,4.27e-06,0.0,0 STARLINK-3689,1 51961U 22025F   23254.97010314  .00000427  00000-0  45785-4 0  9990,2 51961  53.0549 151.7345 0001247  98.4004 261.7127 15.08036556 84956,6920.337,95.488,543.065,541.339,0.0
51961.0,STARLINK-3689,PAYLOAD,2023-09-12 21:33:03,15.08034268,0.0001172,53.0547,147.5583,86.4758,273.6366,3.292e-05,2.27e-06,0.0,0 STARLINK-3689,1 51961U 22025F   23255.89795503  .00000227  00000-0  32920-4 0  9997,2 51961  53.0547 147.5583 0001172  86.4758 273.6366 15.08034268 83988,6920.344,95.489,543.02,541.398,0.0
51961.0,STARLINK-3689,PAYLOAD,2023-09-12 23:08:29,15.08037333,0.0001188,53.0534,147.2651,93.3763,266.7363,6.7139e-05,7.6e-06,0.0,0 STARLINK-3689,1 51961U 22025F   23255.96422730  .00000760  00000-0  67139-4 0  9996,2 51961  53.0534 147.2651 0001188  93.3763 266.7363 15.08037333 83994,6920.335,95.488,543.022,541.378,0.0
51961.0,STARLINK-3689,PAYLOAD,2023-09-13 21:24:34,15.0804106,0.0001434,53.0543,143.0886,87.8778,272.2376,9.7761e-05,1.237e-05,0.0,0 STARLINK-3689,1 51961U 22025F   23256.89207009  .00001237  00000-0  97761-4 0  9993,2 51961  53.0543 143.0886 0001434  87.8778 272.2376 15.08041060 84131,6920.324,95.488,543.181,541.196,0.0
51961.0,STARLINK-3689,PAYLOAD,2023-09-14 02:10:52,15.08047015,0.0001194,53.0537,142.192,101.0883,259.0241,0.00017918,2.506e-05,0.0,0 STARLINK-3689,1 51961U 22025F   23257.09088588  .00002506  00000-0  17918-3 0  9990,2 51961  53.0537 142.1920 0001194 101.0883 259.0241 15.08047015 85278,6920.305,95.488,542.997,541.344,0.0
51961.0,STARLINK-3689,PAYLOAD,2023-09-14 11:43:31,15.08028519,0.0001285,53.0542,140.4045,92.6346,267.479,-8.7116e-05,-1.642e-05,0.0,0 STARLINK-3689,1 51961U 22025F   23257.48855627 -.00001642  00000-0 -87116-4 0  9999,2 51961  53.0542 140.4045 0001285  92.6346 267.4790 15.08028519 84227,6920.362,95.489,543.116,541.338,0.0
51961.0,STARLINK-3689,PAYLOAD,2023-09-14 19:40:42,15.08020227,0.0001303,53.0544,138.9147,82.1306,277.9831,-0.00015044,-2.627e-05,0.0,0 STARLINK-3689,1 51961U 22025F   23257.81993890 -.00002627  00000-0 -15044-3 0  9995,2 51961  53.0544 138.9147 0001303  82.1306 277.9831 15.08020227 85383,6920.387,95.489,543.154,541.351,0.0
51961.0,STARLINK-3689,PAYLOAD,2023-09-14 21:16:08,15.08021481,0.0001343,53.0542,138.6168,77.3419,282.772,-0.00013763,-2.427e-05,0.0,0 STARLINK-3689,1 51961U 22025F   23257.88621318 -.00002427  00000-0 -13763-3 0  9999,2 51961  53.0542 138.6168 0001343  77.3419 282.7720 15.08021481 84288,6920.383,95.489,543.178,541.319,0.0
51961.0,STARLINK-3689,PAYLOAD,2023-09-15 02:02:26,15.08025379,0.0001345,53.0538,137.7198,89.5468,270.5676,-0.0001016,-1.867e-05,0.0,0 STARLINK-3689,1 51961U 22025F   23258.08503429 -.00001867  00000-0 -10160-3 0  9999,2 51961  53.0538 137.7198 0001345  89.5468 270.5676 15.08025379 85429,6920.371,95.489,543.167,541.306,0.0
51961.0,STARLINK-3689,PAYLOAD,2023-09-15 11:35:03,15.08031545,0.0001266,53.0537,135.9296,95.1133,265.0002,-7.4567e-05,-1.447e-05,0.0,0 STARLINK-3689,1 51961U 22025F   23258.48268054 -.00001447  00000-0 -74567-4 0  9991,2 51961  53.0537 135.9296 0001266  95.1133 265.0002 15.08031545 84378,6920.353,95.489,543.094,541.341,0.0
51961.0,STARLINK-3689,PAYLOAD,2023-09-16 01:53:57,15.08044179,0.0001265,53.0535,133.2443,96.4342,263.6792,6.7154e-05,7.6e-06,0.0,0 STARLINK-3689,1 51961U 22025F   23259.07914218  .00000760  00000-0  67154-4 0  9996,2 51961  53.0535 133.2443 0001265  96.4342 263.6792 15.08044179 85576,6920.314,95.488,543.054,541.304,0.0
51961.0,STARLINK-3689,PAYLOAD,2023-09-16 16:12:54,15.08019627,0.000118,53.0543,130.5619,93.0099,267.1026,0.00018748,2.633e-05,0.0,0 STARLINK-3689,1 51961U 22025F   23259.67563271  .00002633  00000-0  18748-3 0  9996,2 51961  53.0543 130.5619 0001180  93.0099 267.1026 15.08019627 85667,6920.389,95.489,543.071,541.437,0.0
51961.0,STARLINK-3689,PAYLOAD,2023-09-17 00:10:05,15.08024321,0.0001261,53.0544,129.0688,91.414,268.6994,0.00019477,2.747e-05,0.0,0 STARLINK-3689,1 51961U 22025F   23260.00700684  .00002747  00000-0  19477-3 0  9992,2 51961  53.0544 129.0688 0001261  91.4140 268.6994 15.08024321 84606,6920.375,95.489,543.112,541.367,0.0
51961.0,STARLINK-3689,PAYLOAD,2023-09-18 01:37:03,15.08043199,0.0001311,53.0526,124.297,95.0621,265.0519,0.00018942,2.665e-05,0.0,0 STARLINK-3689,1 51961U 22025F   23261.06739837  .00002665  00000-0  18942-3 0  9996,2 51961  53.0526 124.2970 0001311  95.0621 265.0519 15.08043199 85875,6920.317,95.488,543.089,541.275,0.0
51961.0,STARLINK-3689,PAYLOAD,2023-09-18 20:42:17,15.08030799,0.0001496,53.0528,120.7137,94.6485,265.4675,0.00013514,1.819e-05,0.0,0 STARLINK-3689,1 51961U 22025F   23261.86270498  .00001819  00000-0  13514-3 0  9997,2 51961  53.0528 120.7137 0001496  94.6485 265.4675 15.08030799 84889,6920.355,95.489,543.255,541.185,0.0
51961.0,STARLINK-3689,PAYLOAD,2023-09-18 22:17:43,15.08038615,0.000128,53.0531,120.4188,84.7964,275.3171,0.00021558,3.073e-05,0.0,0 STARLINK-3689,1 51961U 22025F   23261.92897645  .00003073  00000-0  21558-3 0  9994,2 51961  53.0531 120.4188 0001280  84.7964 275.3171 15.08038615 86001,6920.331,95.488,543.082,541.31,0.0
51961.0,STARLINK-3689,PAYLOAD,2023-09-19 23:44:41,15.08050491,0.0001247,53.0522,115.645,93.8629,266.2503,0.00037369,5.54e-05,0.0,0 STARLINK-3689,1 51961U 22025F   23262.98936729  .00005540  00000-0  37369-3 0  9996,2 51961  53.0522 115.6450 0001247  93.8629 266.2503 15.08050491 86162,6920.295,95.488,543.023,541.297,0.0
51961.0,STARLINK-3689,PAYLOAD,2023-09-20 18:49:56,15.08019909,0.000132,53.0525,112.0665,85.2624,274.8516,-0.00015043,-2.626e-05,0.0,0 STARLINK-3689,1 51961U 22025F   23263.78468230 -.00002626  00000-0 -15043-3 0  9991,2 51961  53.0525 112.0665 0001320  85.2624 274.8516 15.08019909 86287,6920.388,95.489,543.167,541.34,0.0
51961.0,STARLINK-3689,PAYLOAD,2023-09-20 20:25:22,15.08018769,0.0001307,53.0523,111.7685,86.2589,273.855,-0.00016514,-2.855e-05,0.0,0 STARLINK-3689,1 51961U 22025F   23263.85095805 -.00002855  00000-0 -16514-3 0  9991,2 51961  53.0523 111.7685 0001307  86.2589 273.8550 15.08018769 85187,6920.392,95.49,543.161,541.352,0.0
51961.0,STARLINK-3689,PAYLOAD,2023-09-21 13:55:10,15.08024185,0.000125,53.0531,108.4863,89.9479,270.1654,9.3774e-05,1.174e-05,0.0,0 STARLINK-3689,1 51961U 22025F   23264.57998574  .00001174  00000-0  93774-4 0  9991,2 51961  53.0531 108.4863 0001250  89.9479 270.1654 15.08024185 85298,6920.375,95.489,543.105,541.375,0.0
51961.0,STARLINK-3689,PAYLOAD,2023-09-21 18:41:29,15.08030955,0.0001271,53.0524,107.5926,94.388,265.7255,0.00024633,3.551e-05,0.0,0 STARLINK-3689,1 51961U 22025F   23264.77880919  .00003551  00000-0  24633-3 0  9994,2 51961  53.0524 107.5926 0001271  94.3880 265.7255 15.08030955 86435,6920.354,95.489,543.099,541.34,0.0
51961.0,STARLINK-3689,PAYLOAD,2023-09-22 13:46:43,15.08038167,0.0001271,53.0526,104.0132,97.1311,262.9823,0.00045901,6.869e-05,0.0,0 STARLINK-3689,1 51961U 22025F   23265.57410900  .00006869  00000-0  45901-3 0  9998,2 51961  53.0526 104.0132 0001271  97.1311 262.9823 15.08038167 85441,6920.332,95.488,543.077,541.318,0.0
51961.0,STARLINK-3689,PAYLOAD,2023-09-22 20:08:27,15.08048638,0.0001238,53.0528,102.8202,94.9628,265.1503,0.00059245,8.954e-05,0.0,0 STARLINK-3689,1 51961U 22025F   23265.83920476  .00008954  00000-0  59245-3 0  9994,2 51961  53.0528 102.8202 0001238  94.9628 265.1503 15.08048638 85484,6920.3,95.488,543.022,541.309,0.0
51961.0,STARLINK-3689,PAYLOAD,2023-09-22 23:19:19,15.08052974,0.0001237,53.0529,102.2235,94.5932,265.5199,0.00065727,9.968e-05,0.0,0 STARLINK-3689,1 51961U 22025F   23265.97175251  .00009968  00000-0  65727-3 0  9990,2 51961  53.0529 102.2235 0001237  94.5932 265.5199 15.08052974 86617,6920.287,95.487,543.008,541.296,0.0
